FENGYUN 1C DEB          
1 38826U 99025EVS 17345.51512983  .00000754  00000-0  35528-3 0  9998
2 38826  99.8785 101.8424 0054257  57.5824 303.0582 14.22677107351118
